[
  {
    "name": "ONEWEB-0102             \r",
    "tleLine1": "1 47258U 20100A   24298.53839390  .00000256  00000+0  67522-3 0  9991\r",
    "tleLine2": "2 47258  87.8840 110.3055 0001525  82.6052 277.5249 13.12443818185942\r"
  },
  {
    "name": "ONEWEB-0109             \r",
    "tleLine1": "1 47259U 20100B   24298.54649241  .00000519  00000+0  14065-2 0  9992\r",
    "tleLine2": "2 47259  87.8841 110.2699 0001606  82.8727 277.2584 13.12443545185775\r"
  },
  {
    "name": "ONEWEB-0110             \r",
    "tleLine1": "1 47260U 20100C   24298.87740237 -.00000017  00000+0 -84037-4 0  9990\r",
    "tleLine2": "2 47260  87.8835 110.2017 0001697  86.0875 274.0447 13.12440803185984\r"
  },
  {
    "name": "ONEWEB-0111             \r",
    "tleLine1": "1 47261U 20100D   24298.52703076 -.00000063  00000+0 -20930-3 0  9995\r",
    "tleLine2": "2 47261  87.8841 110.2744 0001566  86.5777 273.5531 13.12441883185774\r"
  },
  {
    "name": "ONEWEB-0114             \r",
    "tleLine1": "1 47262U 20100E   24298.55784791  .00000395  00000+0  10627-2 0  9999\r",
    "tleLine2": "2 47262  87.8836 110.2782 0001480  75.5812 284.5481 13.12440879185730\r"
  },
  {
    "name": "ONEWEB-0117             \r",
    "tleLine1": "1 47263U 20100F   24298.54975277  .00000485  00000+0  13138-2 0  9990\r",
    "tleLine2": "2 47263  87.8840 110.2608 0001584  88.4507 271.6803 13.12442177185741\r"
  },
  {
    "name": "ONEWEB-0118             \r",
    "tleLine1": "1 47264U 20100G   24298.50594097 -.00000329  00000+0 -94940-3 0  9994\r",
    "tleLine2": "2 47264  87.8840 110.2722 0001169  85.2137 274.9125 13.12442809185938\r"
  },
  {
    "name": "ONEWEB-0119             \r",
    "tleLine1": "1 47265U 20100H   24298.53352775  .00000097  00000+0  23290-3 0  9993\r",
    "tleLine2": "2 47265  87.8839 110.3059 0001607  87.0402 273.0911 13.12443184185911\r"
  }
]